XRISM                   
1 57800U 23137A   26079.80041790  .00005123  00000+0  28851-3 0  9996
2 57800  31.0013 211.7899 0007955 150.8820 209.2263 15.11615391139478
ACS3                    
1 59588U 24077B   26079.80054017  .00018685  00000+0  14837-1 0  9995
2 59588  97.2013  18.4159 0069029  50.6048 310.1202 13.90082374 95747
SZ-21 MODULE            
1 66515U 25246C   26079.19410922  .00026007  00000+0  21818-3 0  9991
2 66515  41.4734 138.6579 0000376 257.1443 102.9357 15.69318212 19723
